ONEWEB-0558             
1 56059U 23043P   25131.79750842  .00000112  00000+0  23895-3 0  9994
2 56059  87.9248 324.0368 0001492 102.3316 257.7985 13.21826872105215
ONEWEB-0559             
1 56060U 23043Q   25131.78645022 -.00000247  00000+0 -63067-3 0  9994
2 56060  87.9245 324.0318 0001385  86.4771 273.6522 13.21825942105229
ONEWEB-0566             
1 56061U 23043R   25131.93155307  .00000040  00000+0  65590-4 0  9997
2 56061  87.9246 324.0021 0001304  99.9489 260.1792 13.21826026105222
ONEWEB-0568             
1 56062U 23043S   25131.74699096 -.00000030  00000+0 -11321-3 0  9998
2 56062  87.9019 308.7797 0002097  92.3878 267.7493 13.16592714106151
ONEWEB-0574             
1 56063U 23043T   25131.77384416  .00000107  00000+0  22656-3 0  9995
2 56063  87.9243 324.0223 0001879  82.5040 277.6307 13.21823753105244
ONEWEB-0575             
1 56064U 23043U   25131.89265277 -.00000055  00000+0 -17630-3 0  9992
2 56064  87.9016 308.7632 0002057  80.6353 279.5011 13.16592919106167
ONEWEB-0576             
1 56065U 23043V   25131.72165731  .00000139  00000+0  32932-3 0  9992
2 56065  87.9016 308.7880 0002022  89.8351 270.3012 13.16594655106130
ONEWEB-0577             
1 56066U 23043W   25131.87998822  .00000033  00000+0  53330-4 0  9993
2 56066  87.9014 308.7564 0002159  74.6207 285.5163 13.16592962106180
